{
  "type": "FeatureCollection",
  "features": [
    {
      "type": "Feature",
      "properties": {
        "norad_id": 58701,
        "name": "TIANMU-1 16",
        "group": "weather",
        "lat": -82.40802542931931,
        "lon": -86.71736021740028,
        "alt_km": 496.68611332412,
        "timestamp": "2025-12-17T17:50:18.895635+00:00",
        "meta_object_name": "TIANMU-1 16",
        "meta_object_id": "2024-004B",
        "meta_epoch": "2025-12-17T07:12:42.432768",
        "meta_mean_motion": 15.2449461,
        "meta_eccentricity": 0.00043449,
        "meta_inclination": 97.4562,
        "meta_ra_of_asc_node": 172.1376,
        "meta_arg_of_pericenter": 275.5116,
        "meta_mean_anomaly": 84.5626,
        "meta_ephemeris_type": 0,
        "meta_classification_type": "U",
        "meta_norad_cat_id": 58701,
        "meta_element_set_no": 999,
        "meta_rev_at_epoch": 10804,
        "meta_bstar": 0.00022614383,
        "meta_mean_motion_dot": 5.487e-05,
        "meta_mean_motion_ddot": 0,
        "tle_line1": "1 58701U 24004B   25351.30049112  .00005487  00000+0  22614-3 0  9998",
        "tle_line2": "2 58701  97.4562 172.1376 0004344 275.5116  84.5626 15.24494610108045"
      },
      "geometry": {
        "type": "Point",
        "coordinates": [
          -86.71736021740028,
          -82.40802542931931
        ]
      }
    },
    {
      "type": "Feature",
      "properties": {
        "norad_id": 58702,
        "name": "TIANMU-1 17",
        "group": "weather",
        "lat": -6.150784156041073,
        "lon": 173.80001639355987,
        "alt_km": 495.47799715882775,
        "timestamp": "2025-12-17T17:50:18.895645+00:00",
        "meta_object_name": "TIANMU-1 17",
        "meta_object_id": "2024-004C",
        "meta_epoch": "2025-12-17T08:24:51.123744",
        "meta_mean_motion": 15.24538858,
        "meta_eccentricity": 0.00035246,
        "meta_inclination": 97.4597,
        "meta_ra_of_asc_node": 172.6,
        "meta_arg_of_pericenter": 278.1504,
        "meta_mean_anomaly": 81.9334,
        "meta_ephemeris_type": 0,
        "meta_classification_type": "U",
        "meta_norad_cat_id": 58702,
        "meta_element_set_no": 999,
        "meta_rev_at_epoch": 10804,
        "meta_bstar": 0.00022376599,
        "meta_mean_motion_dot": 5.436e-05,
        "meta_mean_motion_ddot": 0,
        "tle_line1": "1 58702U 24004C   25351.35059171  .00005436  00000+0  22377-3 0  9990",
        "tle_line2": "2 58702  97.4597 172.6000 0003524 278.1504  81.9334 15.24538858108042"
      },
      "geometry": {
        "type": "Point",
        "coordinates": [
          173.80001639355987,
          -6.150784156041073
        ]
      }
    },
    {
      "type": "Feature",
      "properties": {
        "norad_id": 58703,
        "name": "TIANMU-1 18",
        "group": "weather",
        "lat": 81.10303777105275,
        "lon": 116.34009968626647,
        "alt_km": 486.71714467107086,
        "timestamp": "2025-12-17T17:50:18.895658+00:00",
        "meta_object_name": "TIANMU-1 18",
        "meta_object_id": "2024-004D",
        "meta_epoch": "2025-12-17T08:00:53.167680",
        "meta_mean_motion": 15.24524167,
        "meta_eccentricity": 0.00028661,
        "meta_inclination": 97.4614,
        "meta_ra_of_asc_node": 172.7797,
        "meta_arg_of_pericenter": 277.1437,
        "meta_mean_anomaly": 82.9474,
        "meta_ephemeris_type": 0,
        "meta_classification_type": "U",
        "meta_norad_cat_id": 58703,
        "meta_element_set_no": 999,
        "meta_rev_at_epoch": 10804,
        "meta_bstar": 0.00022859577,
        "meta_mean_motion_dot": 5.552e-05,
        "meta_mean_motion_ddot": 0,
        "tle_line1": "1 58703U 24004D   25351.33394870  .00005552  00000+0  22860-3 0  9993",
        "tle_line2": "2 58703  97.4614 172.7797 0002866 277.1437  82.9474 15.24524167108043"
      },
      "geometry": {
        "type": "Point",
        "coordinates": [
          116.34009968626647,
          81.10303777105275
        ]
      }
    },
    {
      "type": "Feature",
      "properties": {
        "norad_id": 58990,
        "name": "INSAT-3DS",
        "group": "weather",
        "lat": 0.008387416213430662,
        "lon": 76.28265544282701,
        "alt_km": 35790.4831529081,
        "timestamp": "2025-12-17T17:50:18.895670+00:00",
        "meta_object_name": "INSAT-3DS",
        "meta_object_id": "2024-033A",
        "meta_epoch": "2025-12-17T03:26:41.867232",
        "meta_mean_motion": 1.00272578,
        "meta_eccentricity": 0.0001115,
        "meta_inclination": 0.0483,
        "meta_ra_of_asc_node": 116.2951,
        "meta_arg_of_pericenter": 153.3082,
        "meta_mean_anomaly": 310.1912,
        "meta_ephemeris_type": 0,
        "meta_classification_type": "U",
        "meta_norad_cat_id": 58990,
        "meta_element_set_no": 999,
        "meta_rev_at_epoch": 4524,
        "meta_bstar": 0,
        "meta_mean_motion_dot": -1.32e-06,
        "meta_mean_motion_ddot": 0,
        "tle_line1": "1 58990U 24033A   25351.14354013 -.00000132  00000+0  00000+0 0  9995",
        "tle_line2": "2 58990   0.0483 116.2951 0001115 153.3082 310.1912  1.00272578 45247"
      },
      "geometry": {
        "type": "Point",
        "coordinates": [
          76.28265544282701,
          0.008387416213430662
        ]
      }
    },
    {
      "type": "Feature",
      "properties": {
        "norad_id": 59051,
        "name": "METEOR-M2 4",
        "group": "weather",
        "lat": -43.32176382281772,
        "lon": 120.29332295081127,
        "alt_km": 826.3095813792252,
        "timestamp": "2025-12-17T17:50:18.895682+00:00",
        "meta_object_name": "METEOR-M2 4",
        "meta_object_id": "2024-039A",
        "meta_epoch": "2025-12-17T08:20:51.766368",
        "meta_mean_motion": 14.22402046,
        "meta_eccentricity": 0.00067886,
        "meta_inclination": 98.6772,
        "meta_ra_of_asc_node": 308.1845,
        "meta_arg_of_pericenter": 345.1919,
        "meta_mean_anomaly": 14.9059,
        "meta_ephemeris_type": 0,
        "meta_classification_type": "U",
        "meta_norad_cat_id": 59051,
        "meta_element_set_no": 999,
        "meta_rev_at_epoch": 9341,
        "meta_bstar": 2.6416923e-05,
        "meta_mean_motion_dot": 1.5e-07,
        "meta_mean_motion_ddot": 0,
        "tle_line1": "1 59051U 24039A   25351.34782137  .00000015  00000+0  26417-4 0  9998",
        "tle_line2": "2 59051  98.6772 308.1845 0006788 345.1919  14.9059 14.22402046 93411"
      },
      "geometry": {
        "type": "Point",
        "coordinates": [
          120.29332295081127,
          -43.32176382281772
        ]
      }
    },
    {
      "type": "Feature",
      "properties": {
        "norad_id": 60133,
        "name": "GOES 19",
        "group": "weather",
        "lat": 0.004568267177468683,
        "lon": -81.01236728177547,
        "alt_km": 35782.961259531774,
        "timestamp": "2025-12-17T17:50:18.895694+00:00",
        "meta_object_name": "GOES 19",
        "meta_object_id": "2024-119A",
        "meta_epoch": "2025-12-17T04:24:28.832256",
        "meta_mean_motion": 1.00272009,
        "meta_eccentricity": 0.00010252,
        "meta_inclination": 0.0209,
        "meta_ra_of_asc_node": 160.1979,
        "meta_arg_of_pericenter": 162.8128,
        "meta_mean_anomaly": 113.9865,
        "meta_ephemeris_type": 0,
        "meta_classification_type": "U",
        "meta_norad_cat_id": 60133,
        "meta_element_set_no": 999,
        "meta_rev_at_epoch": 513,
        "meta_bstar": 0,
        "meta_mean_motion_dot": -2.24e-06,
        "meta_mean_motion_ddot": 0,
        "tle_line1": "1 60133U 24119A   25351.18366704 -.00000224  00000+0  00000+0 0  9998",
        "tle_line2": "2 60133   0.0209 160.1979 0001025 162.8128 113.9865  1.00272009  5138"
      },
      "geometry": {
        "type": "Point",
        "coordinates": [
          -81.01236728177547,
          0.004568267177468683
        ]
      }
    },
    {
      "type": "Feature",
      "properties": {
        "norad_id": 65815,
        "name": "FENGYUN 3H",
        "group": "weather",
        "lat": 56.831223295567796,
        "lon": -82.25726084450957,
        "alt_km": 819.8212671747406,
        "timestamp": "2025-12-17T17:50:18.895707+00:00",
        "meta_object_name": "FENGYUN 3H",
        "meta_object_id": "2025-219A",
        "meta_epoch": "2025-12-17T07:25:11.403264",
        "meta_mean_motion": 14.19906006,
        "meta_eccentricity": 6.784e-05,
        "meta_inclination": 98.6589,
        "meta_ra_of_asc_node": 290.8004,
        "meta_arg_of_pericenter": 100.9071,
        "meta_mean_anomaly": 259.2182,
        "meta_ephemeris_type": 0,
        "meta_classification_type": "U",
        "meta_norad_cat_id": 65815,
        "meta_element_set_no": 999,
        "meta_rev_at_epoch": 1157,
        "meta_bstar": 4.9707308e-05,
        "meta_mean_motion_dot": 6.2e-07,
        "meta_mean_motion_ddot": 0,
        "tle_line1": "1 65815U 25219A   25351.30915976  .00000062  00000+0  49707-4 0  9998",
        "tle_line2": "2 65815  98.6589 290.8004 0000678 100.9071 259.2182 14.19906006 11573"
      },
      "geometry": {
        "type": "Point",
        "coordinates": [
          -82.25726084450957,
          56.831223295567796
        ]
      }
    }
  ]
}